2026-083K
1 68764U 26083K   26108.42306494  .00001665  00000+0  11506-3 0  9992
2 68764  96.9505 248.5727 0010535 249.6519 110.3579 15.06870200   209
