{
  "norad_id": 68764,
  "name": "2026-083K",
  "history": [
    {
      "epoch": "2026-04-18T10:09:12.810816Z",
      "apogee_km": 553.0655205043795,
      "perigee_km": 538.4761543001905,
      "latitude_deg": 4.475306436256026e-05,
      "longitude_deg": -110.27296266844162,
      "height_km": 551.4008785586578,
      "semi_major_axis_km": 6923.907837402285,
      "eccentricity": 0.00105355,
      "inclination_deg": 96.9505,
      "raan_deg": 248.5727,
      "arg_perigee_deg": 249.6519,
      "mean_anomaly_deg": 110.3579,
      "mean_motion_rev_day": 15.068702
    }
  ]
}